0 CZ-4 DEB
1 26284U 99057FW  13281.84433052  .00003954  00000-0  77478-3 0  4550
2 26284 098.0012 274.4734 0067389 120.6704 355.2753 14.61862002717643
0 CZ-4 DEB
1 26284U 99057FW  13283.42830972  .00005555  00000-0  10841-2 0  4568
2 26284 098.0014 276.0067 0067439 115.7498 051.2859 14.61882849717879
0 CZ-4 DEB
1 26284U 99057FW  13285.54042551  .00004460  00000-0  87204-3 0  4574
2 26284 098.0010 278.0516 0067455 109.2741 006.7762 14.61899779718186
0 CZ-4 DEB
1 26284U 99057FW  13287.71899205  .00007209  00000-0  14025-2 0  4586
2 26284 098.0002 280.1613 0067500 102.5824 312.1372 14.61917955718502
0 CZ-4 DEB
1 26284U 99057FW  13289.97887948  .00007005  00000-0  13623-2 0  4595
2 26284 098.0000 282.3491 0067546 095.6266 325.6906 14.61944643718832
0 CZ-4 DEB
1 26284U 99057FW  13292.52248528  .00006382  00000-0  12413-2 0  4600
2 26284 098.0009 284.8115 0067488 087.8202 032.6453 14.61973766719201
0 CZ-4 DEB
1 26284U 99057FW  13294.78180704  .00008707  00000-0  16888-2 0  4615
2 26284 098.0016 286.9989 0067476 080.8898 043.6344 14.61996480719537
